ORBITAL FACTORY 2 (OF-2)
1 45113U 19071C   20236.86978924  .00001442  00000-0  55227-4 0  9994
2 45113  51.6450  37.8296 0012380 301.7155  58.2620 15.33558267 31471
M2 PATHFINDER           
1 45727U 20037E   20236.57397054 -.00000084  00000-0 -28959-5 0  9992
2 45727  97.7020  55.1296 0014145  77.9137 282.3712 14.91215564  8022
